STARLINK-36166          
1 67084U 25298K   26002.16668980 -.00201582  00000+0 -33464-2 0  9996
2 67084  69.9988 192.2625 0003364 273.5340  12.4584 15.52610452  4204
STARLINK-35794          
1 67085U 25298L   26002.16668980 -.00072795  00000+0 -11896-2 0  9994
2 67085  69.9987 192.2598 0003508 275.3788  12.5365 15.52558478  4251
STARLINK-35841          
1 67086U 25298M   26002.16668980 -.00187189  00000+0 -31030-2 0  9991
2 67086  69.9988 192.2576 0003403 273.3669  16.4657 15.52598789  4255
STARLINK-35842          
1 67087U 25298N   26002.16668980  .00007369  00000+0  17167-3 0  9997
2 67087  69.9988 192.4763 0003487 276.9577 183.6968 15.42682373  4259
STARLINK-35882          
1 67088U 25298P   26002.16668980 -.00193899  00000+0 -32161-2 0  9994
2 67088  69.9987 192.2535 0003479 273.7610  19.8978 15.52606214  4250
STARLINK-35763          
1 67089U 25298Q   26002.16668980 -.00201637  00000+0 -33472-2 0  9991
2 67089  69.9988 192.2507 0003438 273.3315  22.2426 15.52611818  4256
STARLINK-36060          
1 67090U 25298R   26002.16668980 -.00177956  00000+0 -29463-2 0  9994
2 67090  69.9990 192.2481 0003492 273.4440  24.0423 15.52599526  4205
STARLINK-36097          
1 67091U 25298S   26002.16668980 -.00199351  00000+0 -33087-2 0  9995
2 67091  69.9989 192.2463 0003421 272.5908  26.8200 15.52607979  4255
STARLINK-35792          
1 67092U 25298T   26002.16668980 -.00187584  00000+0 -31100-2 0  9995
2 67092  69.9986 192.2439 0003474 273.0459  28.2920 15.52595842  4206
STARLINK-35784          
1 67093U 25298U   26002.16668980 -.00199491  00000+0 -33110-2 0  9999
2 67093  69.9988 192.2414 0003426 274.2838  28.9612 15.52608218  4255
STARLINK-36202          
1 67094U 25298V   26002.16668980 -.00202784  00000+0 -33671-2 0  9992
2 67094  69.9988 192.2393 0003331 273.3649  31.7963 15.52609099  4256
STARLINK-36227          
1 67095U 25298W   26002.16668980 -.00155329  00000+0 -25658-2 0  9991
2 67095  69.9987 192.2362 0003386 273.7090  33.3727 15.52581780  4203
