CCSDS_OMM_VERS = 2.0
CREATION_DATE  = 
ORIGINATOR     = 

OBJECT_NAME    = STARLINK-36166
OBJECT_ID      = 2025-298K
CENTER_NAME    = EARTH
REF_FRAME      = TEME
TIME_SYSTEM    = UTC
MEAN_ELEMENT_THEORY = SGP/SGP4

EPOCH          = 2026-01-02T04:00:01.998720
MEAN_MOTION    = 15.52610452
ECCENTRICITY   = .0003364
INCLINATION    = 69.9988
RA_OF_ASC_NODE = 192.2625
ARG_OF_PERICENTER = 273.5340
MEAN_ANOMALY   = 12.4584

EPHEMERIS_TYPE = 0
CLASSIFICATION_TYPE = U
NORAD_CAT_ID   = 67084
ELEMENT_SET_NO = 999
REV_AT_EPOCH   = 420
BSTAR          = -.33464E-2
MEAN_MOTION_DOT = -.201582E-2
MEAN_MOTION_DDOT = 0

CCSDS_OMM_VERS = 2.0
CREATION_DATE  = 
ORIGINATOR     = 

OBJECT_NAME    = STARLINK-35794
OBJECT_ID      = 2025-298L
CENTER_NAME    = EARTH
REF_FRAME      = TEME
TIME_SYSTEM    = UTC
MEAN_ELEMENT_THEORY = SGP/SGP4

EPOCH          = 2026-01-02T04:00:01.998720
MEAN_MOTION    = 15.52558478
ECCENTRICITY   = .0003508
INCLINATION    = 69.9987
RA_OF_ASC_NODE = 192.2598
ARG_OF_PERICENTER = 275.3788
MEAN_ANOMALY   = 12.5365

EPHEMERIS_TYPE = 0
CLASSIFICATION_TYPE = U
NORAD_CAT_ID   = 67085
ELEMENT_SET_NO = 999
REV_AT_EPOCH   = 425
BSTAR          = -.11896E-2
MEAN_MOTION_DOT = -.72795E-3
MEAN_MOTION_DDOT = 0

CCSDS_OMM_VERS = 2.0
CREATION_DATE  = 
ORIGINATOR     = 

OBJECT_NAME    = STARLINK-35841
OBJECT_ID      = 2025-298M
CENTER_NAME    = EARTH
REF_FRAME      = TEME
TIME_SYSTEM    = UTC
MEAN_ELEMENT_THEORY = SGP/SGP4

EPOCH          = 2026-01-02T04:00:01.998720
MEAN_MOTION    = 15.52598789
ECCENTRICITY   = .0003403
INCLINATION    = 69.9988
RA_OF_ASC_NODE = 192.2576
ARG_OF_PERICENTER = 273.3669
MEAN_ANOMALY   = 16.4657

EPHEMERIS_TYPE = 0
CLASSIFICATION_TYPE = U
NORAD_CAT_ID   = 67086
ELEMENT_SET_NO = 999
REV_AT_EPOCH   = 425
BSTAR          = -.3103E-2
MEAN_MOTION_DOT = -.187189E-2
MEAN_MOTION_DDOT = 0

CCSDS_OMM_VERS = 2.0
CREATION_DATE  = 
ORIGINATOR     = 

OBJECT_NAME    = STARLINK-35842
OBJECT_ID      = 2025-298N
CENTER_NAME    = EARTH
REF_FRAME      = TEME
TIME_SYSTEM    = UTC
MEAN_ELEMENT_THEORY = SGP/SGP4

EPOCH          = 2026-01-02T04:00:01.998720
MEAN_MOTION    = 15.42682373
ECCENTRICITY   = .0003487
INCLINATION    = 69.9988
RA_OF_ASC_NODE = 192.4763
ARG_OF_PERICENTER = 276.9577
MEAN_ANOMALY   = 183.6968

EPHEMERIS_TYPE = 0
CLASSIFICATION_TYPE = U
NORAD_CAT_ID   = 67087
ELEMENT_SET_NO = 999
REV_AT_EPOCH   = 425
BSTAR          = .17167E-3
MEAN_MOTION_DOT = .7369E-4
MEAN_MOTION_DDOT = 0

CCSDS_OMM_VERS = 2.0
CREATION_DATE  = 
ORIGINATOR     = 

OBJECT_NAME    = STARLINK-35882
OBJECT_ID      = 2025-298P
CENTER_NAME    = EARTH
REF_FRAME      = TEME
TIME_SYSTEM    = UTC
MEAN_ELEMENT_THEORY = SGP/SGP4

EPOCH          = 2026-01-02T04:00:01.998720
MEAN_MOTION    = 15.52606214
ECCENTRICITY   = .0003479
INCLINATION    = 69.9987
RA_OF_ASC_NODE = 192.2535
ARG_OF_PERICENTER = 273.7610
MEAN_ANOMALY   = 19.8978

EPHEMERIS_TYPE = 0
CLASSIFICATION_TYPE = U
NORAD_CAT_ID   = 67088
ELEMENT_SET_NO = 999
REV_AT_EPOCH   = 425
BSTAR          = -.32161E-2
MEAN_MOTION_DOT = -.193899E-2
MEAN_MOTION_DDOT = 0

CCSDS_OMM_VERS = 2.0
CREATION_DATE  = 
ORIGINATOR     = 

OBJECT_NAME    = STARLINK-35763
OBJECT_ID      = 2025-298Q
CENTER_NAME    = EARTH
REF_FRAME      = TEME
TIME_SYSTEM    = UTC
MEAN_ELEMENT_THEORY = SGP/SGP4

EPOCH          = 2026-01-02T04:00:01.998720
MEAN_MOTION    = 15.52611818
ECCENTRICITY   = .0003438
INCLINATION    = 69.9988
RA_OF_ASC_NODE = 192.2507
ARG_OF_PERICENTER = 273.3315
MEAN_ANOMALY   = 22.2426

EPHEMERIS_TYPE = 0
CLASSIFICATION_TYPE = U
NORAD_CAT_ID   = 67089
ELEMENT_SET_NO = 999
REV_AT_EPOCH   = 425
BSTAR          = -.33472E-2
MEAN_MOTION_DOT = -.201637E-2
MEAN_MOTION_DDOT = 0

CCSDS_OMM_VERS = 2.0
CREATION_DATE  = 
ORIGINATOR     = 

OBJECT_NAME    = STARLINK-36060
OBJECT_ID      = 2025-298R
CENTER_NAME    = EARTH
REF_FRAME      = TEME
TIME_SYSTEM    = UTC
MEAN_ELEMENT_THEORY = SGP/SGP4

EPOCH          = 2026-01-02T04:00:01.998720
MEAN_MOTION    = 15.52599526
ECCENTRICITY   = .0003492
INCLINATION    = 69.9990
RA_OF_ASC_NODE = 192.2481
ARG_OF_PERICENTER = 273.4440
MEAN_ANOMALY   = 24.0423

EPHEMERIS_TYPE = 0
CLASSIFICATION_TYPE = U
NORAD_CAT_ID   = 67090
ELEMENT_SET_NO = 999
REV_AT_EPOCH   = 420
BSTAR          = -.29463E-2
MEAN_MOTION_DOT = -.177956E-2
MEAN_MOTION_DDOT = 0

CCSDS_OMM_VERS = 2.0
CREATION_DATE  = 
ORIGINATOR     = 

OBJECT_NAME    = STARLINK-36097
OBJECT_ID      = 2025-298S
CENTER_NAME    = EARTH
REF_FRAME      = TEME
TIME_SYSTEM    = UTC
MEAN_ELEMENT_THEORY = SGP/SGP4

EPOCH          = 2026-01-02T04:00:01.998720
MEAN_MOTION    = 15.52607979
ECCENTRICITY   = .0003421
INCLINATION    = 69.9989
RA_OF_ASC_NODE = 192.2463
ARG_OF_PERICENTER = 272.5908
MEAN_ANOMALY   = 26.8200

EPHEMERIS_TYPE = 0
CLASSIFICATION_TYPE = U
NORAD_CAT_ID   = 67091
ELEMENT_SET_NO = 999
REV_AT_EPOCH   = 425
BSTAR          = -.33087E-2
MEAN_MOTION_DOT = -.199351E-2
MEAN_MOTION_DDOT = 0

CCSDS_OMM_VERS = 2.0
CREATION_DATE  = 
ORIGINATOR     = 

OBJECT_NAME    = STARLINK-35792
OBJECT_ID      = 2025-298T
CENTER_NAME    = EARTH
REF_FRAME      = TEME
TIME_SYSTEM    = UTC
MEAN_ELEMENT_THEORY = SGP/SGP4

EPOCH          = 2026-01-02T04:00:01.998720
MEAN_MOTION    = 15.52595842
ECCENTRICITY   = .0003474
INCLINATION    = 69.9986
RA_OF_ASC_NODE = 192.2439
ARG_OF_PERICENTER = 273.0459
MEAN_ANOMALY   = 28.2920

EPHEMERIS_TYPE = 0
CLASSIFICATION_TYPE = U
NORAD_CAT_ID   = 67092
ELEMENT_SET_NO = 999
REV_AT_EPOCH   = 420
BSTAR          = -.311E-2
MEAN_MOTION_DOT = -.187584E-2
MEAN_MOTION_DDOT = 0

CCSDS_OMM_VERS = 2.0
CREATION_DATE  = 
ORIGINATOR     = 

OBJECT_NAME    = STARLINK-35784
OBJECT_ID      = 2025-298U
CENTER_NAME    = EARTH
REF_FRAME      = TEME
TIME_SYSTEM    = UTC
MEAN_ELEMENT_THEORY = SGP/SGP4

EPOCH          = 2026-01-02T04:00:01.998720
MEAN_MOTION    = 15.52608218
ECCENTRICITY   = .0003426
INCLINATION    = 69.9988
RA_OF_ASC_NODE = 192.2414
ARG_OF_PERICENTER = 274.2838
MEAN_ANOMALY   = 28.9612

EPHEMERIS_TYPE = 0
CLASSIFICATION_TYPE = U
NORAD_CAT_ID   = 67093
ELEMENT_SET_NO = 999
REV_AT_EPOCH   = 425
BSTAR          = -.3311E-2
MEAN_MOTION_DOT = -.199491E-2
MEAN_MOTION_DDOT = 0

CCSDS_OMM_VERS = 2.0
CREATION_DATE  = 
ORIGINATOR     = 

OBJECT_NAME    = STARLINK-36202
OBJECT_ID      = 2025-298V
CENTER_NAME    = EARTH
REF_FRAME      = TEME
TIME_SYSTEM    = UTC
MEAN_ELEMENT_THEORY = SGP/SGP4

EPOCH          = 2026-01-02T04:00:01.998720
MEAN_MOTION    = 15.52609099
ECCENTRICITY   = .0003331
INCLINATION    = 69.9988
RA_OF_ASC_NODE = 192.2393
ARG_OF_PERICENTER = 273.3649
MEAN_ANOMALY   = 31.7963

EPHEMERIS_TYPE = 0
CLASSIFICATION_TYPE = U
NORAD_CAT_ID   = 67094
ELEMENT_SET_NO = 999
REV_AT_EPOCH   = 425
BSTAR          = -.33671E-2
MEAN_MOTION_DOT = -.202784E-2
MEAN_MOTION_DDOT = 0

CCSDS_OMM_VERS = 2.0
CREATION_DATE  = 
ORIGINATOR     = 

OBJECT_NAME    = STARLINK-36227
OBJECT_ID      = 2025-298W
CENTER_NAME    = EARTH
REF_FRAME      = TEME
TIME_SYSTEM    = UTC
MEAN_ELEMENT_THEORY = SGP/SGP4

EPOCH          = 2026-01-02T04:00:01.998720
MEAN_MOTION    = 15.52581780
ECCENTRICITY   = .0003386
INCLINATION    = 69.9987
RA_OF_ASC_NODE = 192.2362
ARG_OF_PERICENTER = 273.7090
MEAN_ANOMALY   = 33.3727

EPHEMERIS_TYPE = 0
CLASSIFICATION_TYPE = U
NORAD_CAT_ID   = 67095
ELEMENT_SET_NO = 999
REV_AT_EPOCH   = 420
BSTAR          = -.25658E-2
MEAN_MOTION_DOT = -.155329E-2
MEAN_MOTION_DDOT = 0

